STARLINK-35559          
1 66095U 25236K   25318.25002315 -.02427884  00000+0 -45775-1 0  9996
2 66095  53.1596 281.9929 0001170  91.6504 260.1535 15.51242539  5296
STARLINK-34386          
1 66096U 25236L   25318.25002315 -.02525916  00000+0 -47780-1 0  9990
2 66096  53.1594 281.9884 0001178  77.4569 276.2623 15.51289999  5293
STARLINK-35613          
1 66097U 25236M   25318.25002315 -.02438221  00000+0 -45986-1 0  9999
2 66097  53.1594 281.9806 0001167  90.9141 266.6409 15.51247445  5297
STARLINK-34206          
1 66098U 25236N   25318.25002315 -.02427621  00000+0 -45771-1 0  9994
2 66098  53.1595 281.9766 0001103  86.7766 272.6947 15.51242372  5287
STARLINK-34460          
1 66099U 25236P   25318.25002315 -.02534500  00000+0 -47954-1 0  9995
2 66099  53.1593 281.9846 0001185  75.6206 280.0148 15.51295507  5296
STARLINK-35609          
1 66100U 25236Q   25318.25002315 -.02446060  00000+0 -46140-1 0  9997
2 66100  53.1595 281.9722 0001273  88.9936 272.3887 15.51253995  5232
STARLINK-35595          
1 66101U 25236R   25318.25002315 -.02457884  00000+0 -46378-1 0  9997
2 66101  53.1595 281.9678 0001266  90.8658 272.4348 15.51261773  5234
STARLINK-35599          
1 66102U 25236S   25318.25002315 -.02442382  00000+0 -46070-1 0  9994
2 66102  53.1595 281.9648 0001194  90.3822 274.8393 15.51249797  5238
STARLINK-35622          
1 66103U 25236T   25318.25002315 -.02477546  00000+0 -46783-1 0  9996
2 66103  53.1596 281.9565 0001241  89.5201 279.5351 15.51269438  5298
STARLINK-35452          
1 66104U 25236U   25318.25002315 -.02443338  00000+0 -46091-1 0  9991
2 66104  53.1594 281.9601 0001137  90.8498 276.2900 15.51249826  5298
STARLINK-35561          
1 66105U 25236V   25318.25002315 -.02477982  00000+0 -46788-1 0  9997
2 66105  53.1597 281.9524 0001342  82.8934 288.0737 15.51271118  5232
STARLINK-35584          
1 66106U 25236W   25318.25002315 -.02474792  00000+0 -46726-1 0  9996
2 66106  53.1598 281.9477 0001313  87.1301 285.7582 15.51268012  5292
