CCSDS_OMM_VERS = 2.0
CREATION_DATE  = 
ORIGINATOR     = 

OBJECT_NAME    = STARLINK-35559
OBJECT_ID      = 2025-236K
CENTER_NAME    = EARTH
REF_FRAME      = TEME
TIME_SYSTEM    = UTC
MEAN_ELEMENT_THEORY = SGP/SGP4

EPOCH          = 2025-11-14T06:00:02.000160
MEAN_MOTION    = 15.51242539
ECCENTRICITY   = .00011709
INCLINATION    = 53.1596
RA_OF_ASC_NODE = 281.9929
ARG_OF_PERICENTER = 91.6504
MEAN_ANOMALY   = 260.1535

EPHEMERIS_TYPE = 0
CLASSIFICATION_TYPE = U
NORAD_CAT_ID   = 66095
ELEMENT_SET_NO = 999
REV_AT_EPOCH   = 529
BSTAR          = -.45775334E-1
MEAN_MOTION_DOT = -.2427884E-1
MEAN_MOTION_DDOT = 0

CCSDS_OMM_VERS = 2.0
CREATION_DATE  = 
ORIGINATOR     = 

OBJECT_NAME    = STARLINK-34386
OBJECT_ID      = 2025-236L
CENTER_NAME    = EARTH
REF_FRAME      = TEME
TIME_SYSTEM    = UTC
MEAN_ELEMENT_THEORY = SGP/SGP4

EPOCH          = 2025-11-14T06:00:02.000160
MEAN_MOTION    = 15.51289999
ECCENTRICITY   = .00011782
INCLINATION    = 53.1594
RA_OF_ASC_NODE = 281.9884
ARG_OF_PERICENTER = 77.4569
MEAN_ANOMALY   = 276.2623

EPHEMERIS_TYPE = 0
CLASSIFICATION_TYPE = U
NORAD_CAT_ID   = 66096
ELEMENT_SET_NO = 999
REV_AT_EPOCH   = 529
BSTAR          = -.47780032E-1
MEAN_MOTION_DOT = -.2525916E-1
MEAN_MOTION_DDOT = 0

CCSDS_OMM_VERS = 2.0
CREATION_DATE  = 
ORIGINATOR     = 

OBJECT_NAME    = STARLINK-35613
OBJECT_ID      = 2025-236M
CENTER_NAME    = EARTH
REF_FRAME      = TEME
TIME_SYSTEM    = UTC
MEAN_ELEMENT_THEORY = SGP/SGP4

EPOCH          = 2025-11-14T06:00:02.000160
MEAN_MOTION    = 15.51247445
ECCENTRICITY   = .00011673
INCLINATION    = 53.1594
RA_OF_ASC_NODE = 281.9806
ARG_OF_PERICENTER = 90.9141
MEAN_ANOMALY   = 266.6409

EPHEMERIS_TYPE = 0
CLASSIFICATION_TYPE = U
NORAD_CAT_ID   = 66097
ELEMENT_SET_NO = 999
REV_AT_EPOCH   = 529
BSTAR          = -.45986237E-1
MEAN_MOTION_DOT = -.2438221E-1
MEAN_MOTION_DDOT = 0

CCSDS_OMM_VERS = 2.0
CREATION_DATE  = 
ORIGINATOR     = 

OBJECT_NAME    = STARLINK-34206
OBJECT_ID      = 2025-236N
CENTER_NAME    = EARTH
REF_FRAME      = TEME
TIME_SYSTEM    = UTC
MEAN_ELEMENT_THEORY = SGP/SGP4

EPOCH          = 2025-11-14T06:00:02.000160
MEAN_MOTION    = 15.51242372
ECCENTRICITY   = .00011035
INCLINATION    = 53.1595
RA_OF_ASC_NODE = 281.9766
ARG_OF_PERICENTER = 86.7766
MEAN_ANOMALY   = 272.6947

EPHEMERIS_TYPE = 0
CLASSIFICATION_TYPE = U
NORAD_CAT_ID   = 66098
ELEMENT_SET_NO = 999
REV_AT_EPOCH   = 528
BSTAR          = -.45771054E-1
MEAN_MOTION_DOT = -.2427621E-1
MEAN_MOTION_DDOT = 0

CCSDS_OMM_VERS = 2.0
CREATION_DATE  = 
ORIGINATOR     = 

OBJECT_NAME    = STARLINK-34460
OBJECT_ID      = 2025-236P
CENTER_NAME    = EARTH
REF_FRAME      = TEME
TIME_SYSTEM    = UTC
MEAN_ELEMENT_THEORY = SGP/SGP4

EPOCH          = 2025-11-14T06:00:02.000160
MEAN_MOTION    = 15.51295507
ECCENTRICITY   = .00011852
INCLINATION    = 53.1593
RA_OF_ASC_NODE = 281.9846
ARG_OF_PERICENTER = 75.6206
MEAN_ANOMALY   = 280.0148

EPHEMERIS_TYPE = 0
CLASSIFICATION_TYPE = U
NORAD_CAT_ID   = 66099
ELEMENT_SET_NO = 999
REV_AT_EPOCH   = 529
BSTAR          = -.47953851E-1
MEAN_MOTION_DOT = -.25345E-1
MEAN_MOTION_DDOT = 0

CCSDS_OMM_VERS = 2.0
CREATION_DATE  = 
ORIGINATOR     = 

OBJECT_NAME    = STARLINK-35609
OBJECT_ID      = 2025-236Q
CENTER_NAME    = EARTH
REF_FRAME      = TEME
TIME_SYSTEM    = UTC
MEAN_ELEMENT_THEORY = SGP/SGP4

EPOCH          = 2025-11-14T06:00:02.000160
MEAN_MOTION    = 15.51253995
ECCENTRICITY   = .00012737
INCLINATION    = 53.1595
RA_OF_ASC_NODE = 281.9722
ARG_OF_PERICENTER = 88.9936
MEAN_ANOMALY   = 272.3887

EPHEMERIS_TYPE = 0
CLASSIFICATION_TYPE = U
NORAD_CAT_ID   = 66100
ELEMENT_SET_NO = 999
REV_AT_EPOCH   = 523
BSTAR          = -.46139906E-1
MEAN_MOTION_DOT = -.244606E-1
MEAN_MOTION_DDOT = 0

CCSDS_OMM_VERS = 2.0
CREATION_DATE  = 
ORIGINATOR     = 

OBJECT_NAME    = STARLINK-35595
OBJECT_ID      = 2025-236R
CENTER_NAME    = EARTH
REF_FRAME      = TEME
TIME_SYSTEM    = UTC
MEAN_ELEMENT_THEORY = SGP/SGP4

EPOCH          = 2025-11-14T06:00:02.000160
MEAN_MOTION    = 15.51261773
ECCENTRICITY   = .00012669
INCLINATION    = 53.1595
RA_OF_ASC_NODE = 281.9678
ARG_OF_PERICENTER = 90.8658
MEAN_ANOMALY   = 272.4348

EPHEMERIS_TYPE = 0
CLASSIFICATION_TYPE = U
NORAD_CAT_ID   = 66101
ELEMENT_SET_NO = 999
REV_AT_EPOCH   = 523
BSTAR          = -.46377882E-1
MEAN_MOTION_DOT = -.2457884E-1
MEAN_MOTION_DDOT = 0

CCSDS_OMM_VERS = 2.0
CREATION_DATE  = 
ORIGINATOR     = 

OBJECT_NAME    = STARLINK-35599
OBJECT_ID      = 2025-236S
CENTER_NAME    = EARTH
REF_FRAME      = TEME
TIME_SYSTEM    = UTC
MEAN_ELEMENT_THEORY = SGP/SGP4

EPOCH          = 2025-11-14T06:00:02.000160
MEAN_MOTION    = 15.51249797
ECCENTRICITY   = .00011941
INCLINATION    = 53.1595
RA_OF_ASC_NODE = 281.9648
ARG_OF_PERICENTER = 90.3822
MEAN_ANOMALY   = 274.8393

EPHEMERIS_TYPE = 0
CLASSIFICATION_TYPE = U
NORAD_CAT_ID   = 66102
ELEMENT_SET_NO = 999
REV_AT_EPOCH   = 523
BSTAR          = -.46070119E-1
MEAN_MOTION_DOT = -.2442382E-1
MEAN_MOTION_DDOT = 0

CCSDS_OMM_VERS = 2.0
CREATION_DATE  = 
ORIGINATOR     = 

OBJECT_NAME    = STARLINK-35622
OBJECT_ID      = 2025-236T
CENTER_NAME    = EARTH
REF_FRAME      = TEME
TIME_SYSTEM    = UTC
MEAN_ELEMENT_THEORY = SGP/SGP4

EPOCH          = 2025-11-14T06:00:02.000160
MEAN_MOTION    = 15.51269438
ECCENTRICITY   = .00012413
INCLINATION    = 53.1596
RA_OF_ASC_NODE = 281.9565
ARG_OF_PERICENTER = 89.5201
MEAN_ANOMALY   = 279.5351

EPHEMERIS_TYPE = 0
CLASSIFICATION_TYPE = U
NORAD_CAT_ID   = 66103
ELEMENT_SET_NO = 999
REV_AT_EPOCH   = 529
BSTAR          = -.46783136E-1
MEAN_MOTION_DOT = -.2477546E-1
MEAN_MOTION_DDOT = 0

CCSDS_OMM_VERS = 2.0
CREATION_DATE  = 
ORIGINATOR     = 

OBJECT_NAME    = STARLINK-35452
OBJECT_ID      = 2025-236U
CENTER_NAME    = EARTH
REF_FRAME      = TEME
TIME_SYSTEM    = UTC
MEAN_ELEMENT_THEORY = SGP/SGP4

EPOCH          = 2025-11-14T06:00:02.000160
MEAN_MOTION    = 15.51249826
ECCENTRICITY   = .00011373
INCLINATION    = 53.1594
RA_OF_ASC_NODE = 281.9601
ARG_OF_PERICENTER = 90.8498
MEAN_ANOMALY   = 276.2900

EPHEMERIS_TYPE = 0
CLASSIFICATION_TYPE = U
NORAD_CAT_ID   = 66104
ELEMENT_SET_NO = 999
REV_AT_EPOCH   = 529
BSTAR          = -.46091196E-1
MEAN_MOTION_DOT = -.2443338E-1
MEAN_MOTION_DDOT = 0

CCSDS_OMM_VERS = 2.0
CREATION_DATE  = 
ORIGINATOR     = 

OBJECT_NAME    = STARLINK-35561
OBJECT_ID      = 2025-236V
CENTER_NAME    = EARTH
REF_FRAME      = TEME
TIME_SYSTEM    = UTC
MEAN_ELEMENT_THEORY = SGP/SGP4

EPOCH          = 2025-11-14T06:00:02.000160
MEAN_MOTION    = 15.51271118
ECCENTRICITY   = .00013428
INCLINATION    = 53.1597
RA_OF_ASC_NODE = 281.9524
ARG_OF_PERICENTER = 82.8934
MEAN_ANOMALY   = 288.0737

EPHEMERIS_TYPE = 0
CLASSIFICATION_TYPE = U
NORAD_CAT_ID   = 66105
ELEMENT_SET_NO = 999
REV_AT_EPOCH   = 523
BSTAR          = -.46787952E-1
MEAN_MOTION_DOT = -.2477982E-1
MEAN_MOTION_DDOT = 0

CCSDS_OMM_VERS = 2.0
CREATION_DATE  = 
ORIGINATOR     = 

OBJECT_NAME    = STARLINK-35584
OBJECT_ID      = 2025-236W
CENTER_NAME    = EARTH
REF_FRAME      = TEME
TIME_SYSTEM    = UTC
MEAN_ELEMENT_THEORY = SGP/SGP4

EPOCH          = 2025-11-14T06:00:02.000160
MEAN_MOTION    = 15.51268012
ECCENTRICITY   = .00013135
INCLINATION    = 53.1598
RA_OF_ASC_NODE = 281.9477
ARG_OF_PERICENTER = 87.1301
MEAN_ANOMALY   = 285.7582

EPHEMERIS_TYPE = 0
CLASSIFICATION_TYPE = U
NORAD_CAT_ID   = 66106
ELEMENT_SET_NO = 999
REV_AT_EPOCH   = 529
BSTAR          = -.46725844E-1
MEAN_MOTION_DOT = -.2474792E-1
MEAN_MOTION_DDOT = 0

